#cP2018  1  2  0  0  0.00000000      96 ORBIT IGS14 HLM  IGS
## 1982 172800.00000000   900.00000000 58120 0.0000000000000
+   32   G01G02G03G04G05G06G07G08G09G10G11G12G13G14G15G16G17
+        G18G19G20G21G22G23G24G25G26G27G28G29G30G31G32  0  0
+          0  0  0  0  0  0  0  0  0  0  0  0  0  0  0  0  0
+          0  0  0  0  0  0  0  0  0  0  0  0  0  0  0  0  0
+          0  0  0  0  0  0  0  0  0  0  0  0  0  0  0  0  0
++         2  2  2  0  2  2  2  2  2  2  2  2  2  2  2  2  2
++         2  2  2  2  2  2  2  2  2  2  2  2  2  2  2  0  0
++         0  0  0  0  0  0  0  0  0  0  0  0  0  0  0  0  0
++         0  0  0  0  0  0  0  0  0  0  0  0  0  0  0  0  0
++         0  0  0  0  0  0  0  0  0  0  0  0  0  0  0  0  0
%c G  cc GPS ccc cccc cccc cccc cccc ccccc ccccc ccccc ccccc
%c cc cc ccc ccc cccc cccc cccc cccc ccccc ccccc ccccc ccccc
%f  1.2500000  1.025000000  0.00000000000  0.000000000000000
%f  0.0000000  0.000000000  0.00000000000  0.000000000000000
%i    0    0    0    0      0      0      0      0         0
%i    0    0    0    0      0      0      0      0         0
/* FINAL ORBIT COMBINATION FROM WEIGHTED AVERAGE OF:        
/* cod emr esa gfz grg jpl mit ngs sio                      
/* REFERENCED TO IGS TIME (IGST) AND TO WEIGHTED MEAN POLE: 
/* PCV:IGS14_1977 OL/AL:FES2004  NONE     Y  ORB:CMB CLK:CMB
*  2018  1  2  3 45  0.00000000
PG01  13778.389440 -22005.723614   4692.269750    -21.024871  6  5  3 112       
PG02 -16503.335445   2693.290214 -20031.731210    239.405423  7  7  7  90       
PG03  16217.031160 -13083.998554 -16461.609892    -17.100442  7  7  3 116       
PG04  19897.414814   9082.278223 -15496.751417 999999.999999
PG05 -26562.447583   2201.595757  -1126.400952    -18.099138  8 10  5  84       
PG06 -11756.528663  -9935.875827 -21613.794171    414.333280  8  7  6  98       
PG07   3637.436185 -24075.876738  10257.000746    257.464856  8  8  3  68       
PG08  13548.139872  -6915.601772  21838.744873    -86.241084  3  5  6 104       
PG09  -5068.291690 -22638.817386 -12961.486317    489.217336  7  8  4  99       
PG10  15322.000049  11500.756738  18483.304921    139.537783  5  4  4  91       
PG11   9915.895363 -21208.033996  12102.813818   -732.725881  4  7  6 116       
PG12 -18993.609000  10668.412874 -15222.273761    357.511949  5 10  8 111       
PG13 -16981.527836  -2147.198437  20186.523099    -95.134757  4  7  6 111       
PG14  18075.906316  16741.794688  -9859.846768    -91.682657  5  2  5 110       
PG15 -12834.763627   9300.670841  21116.781730   -357.414913  7  7  3 106       
PG16  26788.064418   -128.474860   -372.471853     34.664454  6  8  4  96       
PG17 -14941.836012 -22000.672261  -1128.651340   -133.926565  6  6  6  83       
PG18   3471.215609  15897.247176  21596.136444    633.578702  5  7  5 103       
PG19 -17530.837900 -17414.505646  -9729.583766   -466.304946  6  6     56       
PG20 -17881.949305  13985.743172  13606.219375    497.186355  8  9  3 108       
PG21   -132.453900  23951.700240  12219.718014   -446.249264  5  6  5  84       
PG22  21959.341816 -10897.773389 -10009.484442   -242.784353  8  9  7  87       
PG23   5538.348770 -16570.851302 -19621.614438   -219.076776  8  7  7 124       
PG24 -14578.024819  20587.856421   7738.196765    -44.267596  7  5  4  99       
PG25  -5777.551068  14987.607293 -21268.522199   -515.584243  6  6  4 102       
PG26  23767.480299   5062.253478 -10855.113044   -302.800877  3  5  5 103       
PG27  19020.936218   6208.121204  17528.859298    360.085686  4  5  5  77       
PG28 -10830.188479 -13581.923419  20718.567153    676.189413  8  5  6 106       
PG29    298.170659  20992.333920 -16288.547608    516.949354  6 10  6 105       
PG30  -3398.016640 -19986.797926  17086.536892    115.998912  7  4  5 108       
PG31  12368.378366   8862.107467 -21688.863693    151.439939  6  7  5  76       
PG32  16842.162360  20438.873209  -2424.127053   -532.009954  6  4  4  84       
*  2018  1  2  4  0  0.00000000
PG01  13721.103923 -21251.388928   7468.554477    -21.027250  6  4  1 121       
PG02 -15764.627719    348.233112 -20796.597416    239.396350  7  7  7 107       
PG03  17993.570401 -13124.940500 -14454.240383    -17.094593  7  7  3 111       
PG04  18087.124631   9375.048516 -17424.325948 999999.999999
PG05 -26328.722372   1888.743473  -3923.613172    -18.098095  8 10  5  89       
PG06 -10771.488923 -12169.436091 -20975.315540    414.333753  8  7  6 107       
PG07   4285.124019 -24894.439518   7632.078401    257.459731  8  9  4  68       
PG08  15034.428377  -4957.372258  21403.774751    -86.242268  3  5  6 102       
PG09  -3915.964434 -21504.099742 -15120.185183    489.220581  6  8  5  90       
PG10  13172.156029  11895.968777  19829.858890    139.543137  5  4  4  85       
PG11  10265.071578 -19615.309110  14205.419535   -732.726987  4  7  6 118       
PG12 -20589.378525  10628.178713 -12968.024892    357.510243  5 10  8 113       
PG13 -18037.060322  -4147.850482  18925.991205    -95.135117  5  7  6  97       
PG14  18431.493195  17713.255307  -7244.236432    -91.683575  5  2  5 105       
PG15 -14452.170158   7456.672211  20839.208694   -357.415239  7  7  3 101       
PG16  26605.685058     24.276179  -3247.416215     34.663899  5  8  3 102       
PG17 -14792.523341 -22110.275291   1759.455027   -133.924273  5  5  6  77       
PG18   1150.625509  16304.034540  21524.137762    633.578706  4  7  5  95       
PG19 -17850.938216 -18308.251155  -7043.984202   -466.302631  6  5  2  79       
PG20 -19367.227659  14038.657217  11353.651386    497.187247  8  9  4 106       
PG21   -767.666327  24953.032461   9787.096065   -446.245711  5  6  4  73       
PG22  23036.822043 -10759.274196  -7479.640267   -242.796209  8  9  8  88       
PG23   7090.174361 -14779.078474 -20558.165305   -219.076805  8  7  7 103       
PG24 -14486.404315  19494.285017  10310.010818    -44.269042  7  5  4  94       
PG25  -8116.535415  15199.921694 -20305.200434   -515.589820  7  6  4 100       
PG26  22437.089573   5469.400801 -13218.858363   -302.788162  4  4  6  84       
PG27  20074.538969   7790.077616  15647.395560    360.087835  3  4  5  77       
PG28  -8543.742922 -13730.182202  21700.019891    676.192262  8  5  6  99       
PG29   -893.006447  19430.094201 -18103.694124    516.944609  5 10  7  94       
PG30  -2403.576640 -21567.980944  15217.655567    115.996199  7  5  5  95       
PG31  11291.844363  11085.516484 -21213.014532    151.437596  6  7  4  84       
PG32  16706.920064  20691.167817    417.027971   -532.010874  6  5  3  88       
*  2018  1  2  4 15  0.00000000
PG01  13599.906394 -20202.820448  10113.582152    -21.029537  6  4  2  99       
PG02 -15122.057082  -2092.437486 -21184.362881    239.387410  7  7  7 109       
PG03  19528.638801 -13213.617963 -12197.864074    -17.088775  7  7  3 114       
PG04  16098.756302   9800.704654 -19060.253451 999999.999999
PG05 -25806.904647   1502.269052  -6654.253108    -18.097159  7  9  6  87       
PG06  -9937.754190 -14364.623832 -19974.873513    414.334152  8  6  6  88       
PG07   4785.090177 -25458.122681   4873.253714    257.454926  7  9  5  84       
PG08  16576.682682  -3134.702223  20603.067068    -86.243595  3  5  6  96       
PG09  -2556.610526 -20257.183501 -17019.193220    489.223823  6  8  5  91       
PG10  10914.353401  12428.299903  20837.203592    139.548617  4  4  4  88       
PG11  10699.606106 -17810.608333  16056.347364   -732.727980  5  7  7 114       
PG12 -21920.324276  10642.749744 -10490.429781    357.508635  5 10  8 110       
PG13 -19106.529917  -5954.506709  17336.501524    -95.135136  4  7  6  97       
PG14  18659.236799  18417.694944  -4504.052075    -91.684046  5  3  5 102       
PG15 -16113.889216   5729.928819  20197.892502   -357.415030  7  7  3  93       
PG16  26114.571050    220.991279  -6067.976358     34.663587  4  8  3 100       
PG17 -14452.774233 -21970.402684   4617.655936   -133.921789  5  5  7  77       
PG18  -1123.410032  16816.312387  21100.569407    633.578563  4  7  4  90       
PG19 -18038.571785 -18930.544065  -4236.667388   -466.300523  6  5  3  81       
PG20 -20592.409770  14085.941606   8903.848318    497.188098  9 10  4  90       
PG21  -1277.119818  25719.042479   7190.826126   -446.241982  5  7  3  81       
PG22  23833.202932 -10603.599694  -4820.204343   -242.808101  8  9  7  92       
PG23   8781.207867 -13001.568916 -21130.119956   -219.076611  7  7  7 101       
PG24 -14364.170570  18127.894817  12700.836514    -44.269492  7  5  5  96       
PG25 -10316.954906  15516.193237 -18995.268315   -515.595319  7  6  4 110       
PG26  20880.139071   5996.120095 -15356.366725   -302.775432  4  4  6  90       
PG27  21063.418250   9137.964766  13498.386220    360.089950  2  3  5  52       
PG28  -6183.618614 -14019.278129  22328.462204    676.195082  8  6  5 102       
PG29  -2283.342953  17786.793620 -19607.723921    516.939745  5 10  7  95       
PG30  -1575.045893 -22987.832972  13085.271762    115.993467  8  5  5  91       
PG31  10358.648964  13295.630211 -20368.215154    151.435406  6  6  4  91       
PG32  16374.539464  20708.133236   3251.036217   -532.011829  6  5  3  91       
EOF
